[{"OBJECT_NAME":"GEESAT-6 04","OBJECT_ID":"2025-214E","EPOCH":"2026-03-09T23:39:16.844832","MEAN_MOTION":14.829845,"ECCENTRICITY":0.00094543,"INCLINATION":49.9846,"RA_OF_ASC_NODE":47.7418,"ARG_OF_PERICENTER":207.5517,"MEAN_ANOMALY":152.4921,"EPHEMERIS_TYPE":0,"CLASSIFICATION_TYPE":"U","NORAD_CAT_ID":65716,"ELEMENT_SET_NO":999,"REV_AT_EPOCH":2478,"BSTAR":0.00038451427,"MEAN_MOTION_DOT":2.934e-5,"MEAN_MOTION_DDOT":0},{"OBJECT_NAME":"COSMOS 2251 DEB","OBJECT_ID":"1993-036BPB","EPOCH":"2026-03-07T14:40:08.259744","MEAN_MOTION":14.83918046,"ECCENTRICITY":0.0006266,"INCLINATION":74.0191,"RA_OF_ASC_NODE":290.0736,"ARG_OF_PERICENTER":270.7521,"MEAN_ANOMALY":89.2939,"EPHEMERIS_TYPE":0,"CLASSIFICATION_TYPE":"U","NORAD_CAT_ID":37546,"ELEMENT_SET_NO":999,"REV_AT_EPOCH":67145,"BSTAR":0.0022663,"MEAN_MOTION_DOT":0.00018858,"MEAN_MOTION_DDOT":0}]
